CCSDS_OMM_VERS = 2.0
CREATION_DATE  = 
ORIGINATOR     = 

OBJECT_NAME    = ALOS (DAICHI)
OBJECT_ID      = 2006-002A
CENTER_NAME    = EARTH
REF_FRAME      = TEME
TIME_SYSTEM    = UTC
MEAN_ELEMENT_THEORY = SGP/SGP4

EPOCH          = 2025-12-17T17:37:14.152512
MEAN_MOTION    = 14.69501788
ECCENTRICITY   = .00013612
INCLINATION    = 98.1098
RA_OF_ASC_NODE = 303.1864
ARG_OF_PERICENTER = 113.5739
MEAN_ANOMALY   = 246.5610

EPHEMERIS_TYPE = 0
CLASSIFICATION_TYPE = U
NORAD_CAT_ID   = 28931
ELEMENT_SET_NO = 999
REV_AT_EPOCH   = 6144
BSTAR          = .19545051E-3
MEAN_MOTION_DOT = .111E-4
MEAN_MOTION_DDOT = 0

CCSDS_OMM_VERS = 2.0
CREATION_DATE  = 
ORIGINATOR     = 

OBJECT_NAME    = H-2A R/B
OBJECT_ID      = 2006-002B
CENTER_NAME    = EARTH
REF_FRAME      = TEME
TIME_SYSTEM    = UTC
MEAN_ELEMENT_THEORY = SGP/SGP4

EPOCH          = 2025-12-21T08:57:56.697696
MEAN_MOTION    = 15.14730511
ECCENTRICITY   = .0054834
INCLINATION    = 98.2325
RA_OF_ASC_NODE = 130.8285
ARG_OF_PERICENTER = 147.0977
MEAN_ANOMALY   = 213.3686

EPHEMERIS_TYPE = 0
CLASSIFICATION_TYPE = U
NORAD_CAT_ID   = 28932
ELEMENT_SET_NO = 999
REV_AT_EPOCH   = 8257
BSTAR          = .41001E-3
MEAN_MOTION_DOT = .7811E-4
MEAN_MOTION_DDOT = 0

CCSDS_OMM_VERS = 2.0
CREATION_DATE  = 
ORIGINATOR     = 

OBJECT_NAME    = RESURS-DK 1
OBJECT_ID      = 2006-021A
CENTER_NAME    = EARTH
REF_FRAME      = TEME
TIME_SYSTEM    = UTC
MEAN_ELEMENT_THEORY = SGP/SGP4

EPOCH          = 2025-12-21T08:43:27.721056
MEAN_MOTION    = 15.12204563
ECCENTRICITY   = .0006856
INCLINATION    = 69.9339
RA_OF_ASC_NODE = 79.5514
ARG_OF_PERICENTER = 251.4552
MEAN_ANOMALY   = 108.5869

EPHEMERIS_TYPE = 0
CLASSIFICATION_TYPE = U
NORAD_CAT_ID   = 29228
ELEMENT_SET_NO = 999
REV_AT_EPOCH   = 7568
BSTAR          = .12178E-3
MEAN_MOTION_DOT = .2001E-4
MEAN_MOTION_DDOT = 0

CCSDS_OMM_VERS = 2.0
CREATION_DATE  = 
ORIGINATOR     = 

OBJECT_NAME    = CZ-4B R/B
OBJECT_ID      = 2006-046C
CENTER_NAME    = EARTH
REF_FRAME      = TEME
TIME_SYSTEM    = UTC
MEAN_ELEMENT_THEORY = SGP/SGP4

EPOCH          = 2025-12-21T02:04:11.144640
MEAN_MOTION    = 15.15946574
ECCENTRICITY   = .0033989
INCLINATION    = 97.5717
RA_OF_ASC_NODE = 35.2020
ARG_OF_PERICENTER = 177.3101
MEAN_ANOMALY   = 182.8320

EPHEMERIS_TYPE = 0
CLASSIFICATION_TYPE = U
NORAD_CAT_ID   = 29507
ELEMENT_SET_NO = 999
REV_AT_EPOCH   = 4813
BSTAR          = .16524291E-3
MEAN_MOTION_DOT = .3144E-4
MEAN_MOTION_DDOT = 0

CCSDS_OMM_VERS = 2.0
CREATION_DATE  = 
ORIGINATOR     = 

OBJECT_NAME    = CZ-2C R/B
OBJECT_ID      = 2007-010B
CENTER_NAME    = EARTH
REF_FRAME      = TEME
TIME_SYSTEM    = UTC
MEAN_ELEMENT_THEORY = SGP/SGP4

EPOCH          = 2025-12-21T07:32:02.791680
MEAN_MOTION    = 14.20213084
ECCENTRICITY   = .005947
INCLINATION    = 98.3976
RA_OF_ASC_NODE = 107.5332
ARG_OF_PERICENTER = 161.0989
MEAN_ANOMALY   = 199.2415

EPHEMERIS_TYPE = 0
CLASSIFICATION_TYPE = U
NORAD_CAT_ID   = 31114
ELEMENT_SET_NO = 999
REV_AT_EPOCH   = 96859
BSTAR          = .67848E-4
MEAN_MOTION_DOT = .107E-5
MEAN_MOTION_DDOT = 0

CCSDS_OMM_VERS = 2.0
CREATION_DATE  = 
ORIGINATOR     = 

OBJECT_NAME    = COSMO-SKYMED 1
OBJECT_ID      = 2007-023A
CENTER_NAME    = EARTH
REF_FRAME      = TEME
TIME_SYSTEM    = UTC
MEAN_ELEMENT_THEORY = SGP/SGP4

EPOCH          = 2025-12-21T11:37:46.227648
MEAN_MOTION    = 14.95828906
ECCENTRICITY   = .000153
INCLINATION    = 97.8838
RA_OF_ASC_NODE = 180.9413
ARG_OF_PERICENTER = 81.9726
MEAN_ANOMALY   = 278.1668

EPHEMERIS_TYPE = 0
CLASSIFICATION_TYPE = U
NORAD_CAT_ID   = 31598
ELEMENT_SET_NO = 999
REV_AT_EPOCH   = 321
BSTAR          = .26932E-3
MEAN_MOTION_DOT = .2948E-4
MEAN_MOTION_DDOT = 0

CCSDS_OMM_VERS = 2.0
CREATION_DATE  = 
ORIGINATOR     = 

OBJECT_NAME    = COSMOS 2428
OBJECT_ID      = 2007-029A
CENTER_NAME    = EARTH
REF_FRAME      = TEME
TIME_SYSTEM    = UTC
MEAN_ELEMENT_THEORY = SGP/SGP4

EPOCH          = 2025-12-21T10:42:57.178368
MEAN_MOTION    = 14.12893036
ECCENTRICITY   = .0004166
INCLINATION    = 70.9365
RA_OF_ASC_NODE = 7.5989
ARG_OF_PERICENTER = 11.2158
MEAN_ANOMALY   = 348.9055

EPHEMERIS_TYPE = 0
CLASSIFICATION_TYPE = U
NORAD_CAT_ID   = 31792
ELEMENT_SET_NO = 999
REV_AT_EPOCH   = 95304
BSTAR          = .11709E-3
MEAN_MOTION_DOT = .17E-5
MEAN_MOTION_DDOT = 0

CCSDS_OMM_VERS = 2.0
CREATION_DATE  = 
ORIGINATOR     = 

OBJECT_NAME    = SL-16 R/B
OBJECT_ID      = 2007-029B
CENTER_NAME    = EARTH
REF_FRAME      = TEME
TIME_SYSTEM    = UTC
MEAN_ELEMENT_THEORY = SGP/SGP4

EPOCH          = 2025-12-21T09:18:57.964032
MEAN_MOTION    = 14.14816722
ECCENTRICITY   = .0001904
INCLINATION    = 70.9758
RA_OF_ASC_NODE = 336.9774
ARG_OF_PERICENTER = 262.4859
MEAN_ANOMALY   = 259.4601

EPHEMERIS_TYPE = 0
CLASSIFICATION_TYPE = U
NORAD_CAT_ID   = 31793
ELEMENT_SET_NO = 999
REV_AT_EPOCH   = 95429
BSTAR          = .14789E-3
MEAN_MOTION_DOT = .238E-5
MEAN_MOTION_DDOT = 0

CCSDS_OMM_VERS = 2.0
CREATION_DATE  = 
ORIGINATOR     = 

OBJECT_NAME    = KORONAS-FOTON
OBJECT_ID      = 2009-003A
CENTER_NAME    = EARTH
REF_FRAME      = TEME
TIME_SYSTEM    = UTC
MEAN_ELEMENT_THEORY = SGP/SGP4

EPOCH          = 2025-12-21T10:53:55.830624
MEAN_MOTION    = 15.41358600
ECCENTRICITY   = .0013404
INCLINATION    = 82.4306
RA_OF_ASC_NODE = 357.0742
ARG_OF_PERICENTER = 81.3597
MEAN_ANOMALY   = 278.9168

EPHEMERIS_TYPE = 0
CLASSIFICATION_TYPE = U
NORAD_CAT_ID   = 33504
ELEMENT_SET_NO = 999
REV_AT_EPOCH   = 93368
BSTAR          = .19179E-3
MEAN_MOTION_DOT = .8063E-4
MEAN_MOTION_DDOT = 0

CCSDS_OMM_VERS = 2.0
CREATION_DATE  = 
ORIGINATOR     = 

OBJECT_NAME    = CZ-2C R/B
OBJECT_ID      = 2011-030B
CENTER_NAME    = EARTH
REF_FRAME      = TEME
TIME_SYSTEM    = UTC
MEAN_ELEMENT_THEORY = SGP/SGP4

EPOCH          = 2025-12-21T09:18:27.640224
MEAN_MOTION    = 14.80926793
ECCENTRICITY   = .0051394
INCLINATION    = 97.8427
RA_OF_ASC_NODE = 309.3036
ARG_OF_PERICENTER = 244.6425
MEAN_ANOMALY   = 231.7549

EPHEMERIS_TYPE = 0
CLASSIFICATION_TYPE = U
NORAD_CAT_ID   = 37731
ELEMENT_SET_NO = 999
REV_AT_EPOCH   = 77850
BSTAR          = .14501E-3
MEAN_MOTION_DOT = .1092E-4
MEAN_MOTION_DDOT = 0

CCSDS_OMM_VERS = 2.0
CREATION_DATE  = 
ORIGINATOR     = 

OBJECT_NAME    = H-2A R/B
OBJECT_ID      = 2012-025E
CENTER_NAME    = EARTH
REF_FRAME      = TEME
TIME_SYSTEM    = UTC
MEAN_ELEMENT_THEORY = SGP/SGP4

EPOCH          = 2025-12-21T11:27:48.127104
MEAN_MOTION    = 14.94495494
ECCENTRICITY   = .0044347
INCLINATION    = 98.4609
RA_OF_ASC_NODE = 311.3818
ARG_OF_PERICENTER = 207.1579
MEAN_ANOMALY   = 152.7319

EPHEMERIS_TYPE = 0
CLASSIFICATION_TYPE = U
NORAD_CAT_ID   = 38341
ELEMENT_SET_NO = 999
REV_AT_EPOCH   = 73653
BSTAR          = .19812E-3
MEAN_MOTION_DOT = .211E-4
MEAN_MOTION_DDOT = 0

CCSDS_OMM_VERS = 2.0
CREATION_DATE  = 
ORIGINATOR     = 

OBJECT_NAME    = SHIJIAN-16 (SJ-16)
OBJECT_ID      = 2013-057A
CENTER_NAME    = EARTH
REF_FRAME      = TEME
TIME_SYSTEM    = UTC
MEAN_ELEMENT_THEORY = SGP/SGP4

EPOCH          = 2025-12-21T12:29:35.651328
MEAN_MOTION    = 14.92007002
ECCENTRICITY   = .0017888
INCLINATION    = 74.9730
RA_OF_ASC_NODE = 333.0393
ARG_OF_PERICENTER = 299.3030
MEAN_ANOMALY   = 60.6370

EPHEMERIS_TYPE = 0
CLASSIFICATION_TYPE = U
NORAD_CAT_ID   = 39358
ELEMENT_SET_NO = 999
REV_AT_EPOCH   = 65984
BSTAR          = .12964E-3
MEAN_MOTION_DOT = .1289E-4
MEAN_MOTION_DDOT = 0

CCSDS_OMM_VERS = 2.0
CREATION_DATE  = 
ORIGINATOR     = 

OBJECT_NAME    = SL-4 R/B
OBJECT_ID      = 2014-021B
CENTER_NAME    = EARTH
REF_FRAME      = TEME
TIME_SYSTEM    = UTC
MEAN_ELEMENT_THEORY = SGP/SGP4

EPOCH          = 2025-12-21T06:20:57.909696
MEAN_MOTION    = 15.36857317
ECCENTRICITY   = .0100978
INCLINATION    = 51.6090
RA_OF_ASC_NODE = 359.1584
ARG_OF_PERICENTER = 176.9614
MEAN_ANOMALY   = 183.2003

EPHEMERIS_TYPE = 0
CLASSIFICATION_TYPE = U
NORAD_CAT_ID   = 39679
ELEMENT_SET_NO = 999
REV_AT_EPOCH   = 64420
BSTAR          = .20115E-3
MEAN_MOTION_DOT = .8295E-4
MEAN_MOTION_DDOT = 0

CCSDS_OMM_VERS = 2.0
CREATION_DATE  = 
ORIGINATOR     = 

OBJECT_NAME    = ALOS-2
OBJECT_ID      = 2014-029A
CENTER_NAME    = EARTH
REF_FRAME      = TEME
TIME_SYSTEM    = UTC
MEAN_ELEMENT_THEORY = SGP/SGP4

EPOCH          = 2025-12-21T12:50:51.887328
MEAN_MOTION    = 14.79472143
ECCENTRICITY   = .0001398
INCLINATION    = 97.9232
RA_OF_ASC_NODE = 90.2566
ARG_OF_PERICENTER = 97.3750
MEAN_ANOMALY   = 262.7621

EPHEMERIS_TYPE = 0
CLASSIFICATION_TYPE = U
NORAD_CAT_ID   = 39766
ELEMENT_SET_NO = 999
REV_AT_EPOCH   = 62531
BSTAR          = .20717E-3
MEAN_MOTION_DOT = .1496E-4
MEAN_MOTION_DDOT = 0

CCSDS_OMM_VERS = 2.0
CREATION_DATE  = 
ORIGINATOR     = 

OBJECT_NAME    = YAOGAN-29
OBJECT_ID      = 2015-069A
CENTER_NAME    = EARTH
REF_FRAME      = TEME
TIME_SYSTEM    = UTC
MEAN_ELEMENT_THEORY = SGP/SGP4

EPOCH          = 2025-12-21T12:34:46.975584
MEAN_MOTION    = 14.82891979
ECCENTRICITY   = .0000537
INCLINATION    = 98.0208
RA_OF_ASC_NODE = 18.7241
ARG_OF_PERICENTER = 170.4695
MEAN_ANOMALY   = 189.6528

EPHEMERIS_TYPE = 0
CLASSIFICATION_TYPE = U
NORAD_CAT_ID   = 41038
ELEMENT_SET_NO = 999
REV_AT_EPOCH   = 54429
BSTAR          = .41532E-4
MEAN_MOTION_DOT = .282E-5
MEAN_MOTION_DDOT = 0

